OBJECT_NAME,OBJECT_ID,EPOCH,MEAN_MOTION,ECCENTRICITY,INCLINATION,RA_OF_ASC_NODE,ARG_OF_PERICENTER,MEAN_ANOMALY,EPHEMERIS_TYPE,CLASSIFICATION_TYPE,NORAD_CAT_ID,ELEMENT_SET_NO,REV_AT_EPOCH,BSTAR,MEAN_MOTION_DOT,MEAN_MOTION_DDOT
ONEWEB-0534,2023-029B,2026-06-26T05:52:23.219616,13.20772075,.0001912,87.9190,272.6640,101.6205,258.5143,0,U,55797,999,16234,.83329314E-4,.47E-6,0
ONEWEB-0556,2023-029C,2026-06-26T06:02:03.491520,13.20773940,.00012941,87.9184,272.6618,82.8095,277.3186,0,U,55798,999,16234,.8889312E-4,.49E-6,0
ONEWEB-0562,2023-029D,2026-06-26T05:42:41.732928,13.20770759,.00019497,87.9189,272.6455,74.2547,285.8802,0,U,55799,999,16234,-.8755321E-5,.9E-7,0
ONEWEB-0563,2023-029E,2026-06-26T05:35:25.221984,13.20772348,.0001831,87.9195,272.6772,104.7381,255.3956,0,U,55800,999,16233,.60749295E-4,.38E-6,0
ONEWEB-0564,2023-029F,2026-06-26T07:14:49.664544,13.20771563,.0002007,87.9188,272.6373,90.4343,269.7020,0,U,55801,999,16235,.7325014E-5,.16E-6,0
ONEWEB-0638,2023-029G,2026-06-26T07:10:21.048672,13.14504055,.00015542,87.8961,287.9350,87.0934,273.0374,0,U,55802,999,16059,.78168698E-3,.303E-5,0
ONEWEB-0639,2023-029H,2026-06-25T21:39:33.417504,13.19724875,.00017584,87.9177,303.2396,130.1927,229.9360,0,U,55803,999,16005,-.25729434E-3,-.9E-6,0
ONEWEB-0640,2023-029J,2026-06-26T05:34:26.019840,13.14502871,.00012115,87.8958,287.9392,95.4705,264.6563,0,U,55804,999,16060,-.34891755E-4,0,0
ONEWEB-0641,2023-029K,2026-06-26T06:38:37.476960,13.19725957,.00019087,87.9184,303.1550,105.1599,254.9745,0,U,55805,999,16011,.12779755E-3,.64E-6,0
ONEWEB-0642,2023-029L,2026-06-25T21:25:56.085600,13.19725021,.00020071,87.9175,303.2424,125.1441,234.9880,0,U,55806,999,16005,-.36556953E-3,-.133E-5,0
ONEWEB-0643,2023-029M,2026-06-26T06:40:39.683712,13.14503801,.00022377,87.8957,287.9173,118.3911,241.7444,0,U,55807,999,16058,.13653935E-3,.63E-6,0
ONEWEB-0644,2023-029N,2026-06-26T06:24:59.181696,13.19724625,.00019559,87.9170,303.1689,111.4814,248.6528,0,U,55808,999,16010,-.34971494E-4,-.1E-7,0
ONEWEB-0645,2023-029P,2026-06-25T21:50:56.829408,13.19724709,.00015123,87.9175,303.2373,109.1253,251.0043,0,U,55809,999,16005,-.80153764E-4,-.19E-6,0
ONEWEB-0646,2023-029Q,2026-06-25T20:26:47.806944,13.19725265,.00019461,87.9171,303.2490,108.8263,251.3081,0,U,55810,999,16003,.19169688E-4,.21E-6,0
ONEWEB-0648,2023-029R,2026-06-26T05:54:59.091264,13.14501599,.00015126,87.8972,287.8980,128.5643,231.5623,0,U,55811,999,16058,-.17642314E-3,-.53E-6,0
ONEWEB-0649,2023-029S,2026-06-25T21:03:10.507680,13.19725213,.00017608,87.9175,303.2417,105.9647,254.1680,0,U,55812,999,16007,-.26632914E-4,.2E-7,0
ONEWEB-0650,2023-029T,2026-06-25T20:56:21.592896,13.19729483,.00018959,87.9175,303.2453,119.1859,240.9463,0,U,55813,999,16004,-.53000804E-4,-.8E-7,0
ONEWEB-0652,2023-029U,2026-06-26T07:17:11.168736,13.14501136,.00020667,87.8966,287.8935,98.1284,262.0080,0,U,55814,999,16056,.55640406E-3,.219E-5,0
ONEWEB-0653,2023-029V,2026-06-26T06:54:20.574432,13.14504198,.00019293,87.8969,287.8950,98.6095,261.5253,0,U,55815,999,16059,.53058373E-3,.21E-5,0
ONEWEB-0654,2023-029W,2026-06-26T06:47:29.095296,13.14504775,.00020373,87.8967,287.8919,90.2327,269.9036,0,U,55816,999,16061,.50813631E-3,.201E-5,0
ONEWEB-0656,2023-029X,2026-06-26T07:05:05.996256,13.20773902,.00022345,87.9202,272.6157,89.8948,270.2442,0,U,55817,999,16235,.15410213E-3,.76E-6,0
ONEWEB-0657,2023-029Y,2026-06-25T20:49:32.666016,13.19724895,.00026008,87.9175,303.2449,97.1335,263.0094,0,U,55818,999,16005,-.2489744E-3,-.87E-6,0
ONEWEB-0658,2023-029Z,2026-06-26T03:59:25.501632,13.19725065,.00019021,87.9186,303.1618,112.0729,248.0606,0,U,55819,999,16010,-.10859418E-3,-.31E-6,0
ONEWEB-0660,2023-029AA,2026-06-26T06:15:31.284864,13.14503786,.00016402,87.8974,287.8909,104.0036,256.1276,0,U,55820,999,16059,-.55855734E-3,-.194E-5,0
ONEWEB-0661,2023-029AB,2026-06-26T07:05:47.079456,13.14503264,.00016044,87.8960,287.9268,99.2195,260.9117,0,U,55821,999,16058,.38207147E-3,.154E-5,0
ONEWEB-0662,2023-029AC,2026-06-26T06:06:24.307200,13.14503003,.00016281,87.8958,287.9412,104.1808,255.9502,0,U,55822,999,16062,-.53406474E-3,-.185E-5,0
ONEWEB-0663,2023-029AD,2026-06-26T06:03:35.425440,13.20869514,.00017228,87.9199,272.6950,111.4928,248.6390,0,U,55823,999,16234,.34070788E-4,.27E-6,0
ONEWEB-0664,2023-029AE,2026-06-26T06:45:44.072640,13.20770564,.00015965,87.9183,272.6691,89.8974,270.2343,0,U,55824,999,16234,.12350338E-3,.63E-6,0
ONEWEB-0665,2023-029AF,2026-06-26T07:01:12.859680,13.14503038,.00016383,87.8959,287.9083,107.4643,252.6665,0,U,55825,999,16060,.62171541E-3,.243E-5,0
ONEWEB-0666,2023-029AG,2026-06-26T06:36:01.753920,13.20771707,.00026969,87.9183,272.6606,97.4914,262.6526,0,U,55826,999,16235,-.45029721E-4,-.5E-7,0
