ONEWEB-0534             
1 55797U 23029B   26177.24471319  .00000047  00000+0  83329-4 0  9992
2 55797  87.9190 272.6640 0001912 101.6205 258.5143 13.20772075162342
ONEWEB-0556             
1 55798U 23029C   26177.25142930  .00000049  00000+0  88893-4 0  9991
2 55798  87.9184 272.6618 0001294  82.8095 277.3186 13.20773940162349
ONEWEB-0562             
1 55799U 23029D   26177.23798302  .00000009  00000+0 -87553-5 0  9990
2 55799  87.9189 272.6455 0001949  74.2547 285.8802 13.20770759162342
ONEWEB-0563             
1 55800U 23029E   26177.23293081  .00000038  00000+0  60749-4 0  9995
2 55800  87.9195 272.6772 0001831 104.7381 255.3956 13.20772348162336
ONEWEB-0564             
1 55801U 23029F   26177.30196371  .00000016  00000+0  73250-5 0  9996
2 55801  87.9188 272.6373 0002007  90.4343 269.7020 13.20771563162352
ONEWEB-0638             
1 55802U 23029G   26177.29885473  .00000303  00000+0  78169-3 0  9994
2 55802  87.8961 287.9350 0001554  87.0934 273.0374 13.14504055160596
ONEWEB-0639             
1 55803U 23029H   26176.90247011 -.00000090  00000+0 -25729-3 0  9991
2 55803  87.9177 303.2396 0001758 130.1927 229.9360 13.19724875160052
ONEWEB-0640             
1 55804U 23029J   26177.23224560  .00000000  00000+0 -34892-4 0  9995
2 55804  87.8958 287.9392 0001211  95.4705 264.6563 13.14502871160601
ONEWEB-0641             
1 55805U 23029K   26177.27682265  .00000064  00000+0  12780-3 0  9990
2 55805  87.9184 303.1550 0001908 105.1599 254.9745 13.19725957160111
ONEWEB-0642             
1 55806U 23029L   26176.89301025 -.00000133  00000+0 -36557-3 0  9997
2 55806  87.9175 303.2424 0002007 125.1441 234.9880 13.19725021160055
ONEWEB-0643             
1 55807U 23029M   26177.27823708  .00000063  00000+0  13654-3 0  9991
2 55807  87.8957 287.9173 0002237 118.3911 241.7444 13.14503801160588
ONEWEB-0644             
1 55808U 23029N   26177.26735164 -.00000001  00000+0 -34971-4 0  9999
2 55808  87.9170 303.1689 0001955 111.4814 248.6528 13.19724625160103
ONEWEB-0645             
1 55809U 23029P   26176.91037997 -.00000019  00000+0 -80154-4 0  9993
2 55809  87.9175 303.2373 0001512 109.1253 251.0043 13.19724709160057
ONEWEB-0646             
1 55810U 23029Q   26176.85194221  .00000021  00000+0  19170-4 0  9993
2 55810  87.9171 303.2490 0001946 108.8263 251.3081 13.19725265160034
ONEWEB-0648             
1 55811U 23029R   26177.24651726 -.00000053  00000+0 -17642-3 0  9994
2 55811  87.8972 287.8980 0001512 128.5643 231.5623 13.14501599160583
ONEWEB-0649             
1 55812U 23029S   26176.87720495  .00000002  00000+0 -26633-4 0  9997
2 55812  87.9175 303.2417 0001760 105.9647 254.1680 13.19725213160070
ONEWEB-0650             
1 55813U 23029T   26176.87247214 -.00000008  00000+0 -53001-4 0  9997
2 55813  87.9175 303.2453 0001895 119.1859 240.9463 13.19729483160044
ONEWEB-0652             
1 55814U 23029U   26177.30360149  .00000219  00000+0  55640-3 0  9992
2 55814  87.8966 287.8935 0002066  98.1284 262.0080 13.14501136160568
ONEWEB-0653             
1 55815U 23029V   26177.28773813  .00000210  00000+0  53058-3 0  9998
2 55815  87.8969 287.8950 0001929  98.6095 261.5253 13.14504198160591
ONEWEB-0654             
1 55816U 23029W   26177.28297564  .00000201  00000+0  50814-3 0  9990
2 55816  87.8967 287.8919 0002037  90.2327 269.9036 13.14504775160617
ONEWEB-0656             
1 55817U 23029X   26177.29520829  .00000076  00000+0  15410-3 0  9998
2 55817  87.9202 272.6157 0002234  89.8948 270.2442 13.20773902162355
ONEWEB-0657             
1 55818U 23029Y   26176.86773919 -.00000087  00000+0 -24897-3 0  9994
2 55818  87.9175 303.2449 0002600  97.1335 263.0094 13.19724895160052
ONEWEB-0658             
1 55819U 23029Z   26177.16626738 -.00000031  00000+0 -10859-3 0  9997
2 55819  87.9186 303.1618 0001902 112.0729 248.0606 13.19725065160108
ONEWEB-0660             
1 55820U 23029AA  26177.26077876 -.00000194  00000+0 -55856-3 0  9999
2 55820  87.8974 287.8909 0001640 104.0036 256.1276 13.14503786160591
ONEWEB-0661             
1 55821U 23029AB  26177.29568379  .00000154  00000+0  38207-3 0  9991
2 55821  87.8960 287.9268 0001604  99.2195 260.9117 13.14503264160584
ONEWEB-0662             
1 55822U 23029AC  26177.25444800 -.00000185  00000+0 -53406-3 0  9994
2 55822  87.8958 287.9412 0001628 104.1808 255.9502 13.14503003160624
ONEWEB-0663             
1 55823U 23029AD  26177.25249335  .00000027  00000+0  34071-4 0  9992
2 55823  87.9199 272.6950 0001722 111.4928 248.6390 13.20869514162344
ONEWEB-0664             
1 55824U 23029AE  26177.28176010  .00000063  00000+0  12350-3 0  9990
2 55824  87.9183 272.6691 0001596  89.8974 270.2343 13.20770564162343
ONEWEB-0665             
1 55825U 23029AF  26177.29250995  .00000243  00000+0  62172-3 0  9994
2 55825  87.8959 287.9083 0001638 107.4643 252.6665 13.14503038160606
ONEWEB-0666             
1 55826U 23029AG  26177.27502030 -.00000005  00000+0 -45030-4 0  9996
2 55826  87.9183 272.6606 0002696  97.4914 262.6526 13.20771707162351
